[{"OBJECT_NAME":"IRIDIUM 120","OBJECT_ID":"2017-039C","EPOCH":"2026-03-09T21:12:27.197568","MEAN_MOTION":14.34217759,"ECCENTRICITY":0.00021079,"INCLINATION":86.4016,"RA_OF_ASC_NODE":3.4651,"ARG_OF_PERICENTER":89.0553,"MEAN_ANOMALY":271.0885,"EPHEMERIS_TYPE":0,"CLASSIFICATION_TYPE":"U","NORAD_CAT_ID":42805,"ELEMENT_SET_NO":999,"REV_AT_EPOCH":45694,"BSTAR":1.4790436e-5,"MEAN_MOTION_DOT":6.1e-7,"MEAN_MOTION_DDOT":0},{"OBJECT_NAME":"NOAA 16 DEB","OBJECT_ID":"2000-055NL","EPOCH":"2026-03-09T02:24:22.336992","MEAN_MOTION":14.35938355,"ECCENTRICITY":0.00137728,"INCLINATION":98.7288,"RA_OF_ASC_NODE":170.8322,"ARG_OF_PERICENTER":130.254,"MEAN_ANOMALY":229.9852,"EPHEMERIS_TYPE":0,"CLASSIFICATION_TYPE":"U","NORAD_CAT_ID":41536,"ELEMENT_SET_NO":999,"REV_AT_EPOCH":52509,"BSTAR":0.0023901192,"MEAN_MOTION_DOT":6.904e-5,"MEAN_MOTION_DDOT":0}]
